{
  "links" : {
    "next" : "https://api.nasa.gov/neo/rest/v1/feed?start_date=2012-01-09&end_date=2012-01-09&detailed=true&api_key=t0TVs3DtDT2H8Oy2Zy8m2eVrNsAVKAexjcZXUckd",
    "prev" : "https://api.nasa.gov/neo/rest/v1/feed?start_date=2012-01-07&end_date=2012-01-07&detailed=true&api_key=t0TVs3DtDT2H8Oy2Zy8m2eVrNsAVKAexjcZXUckd",
    "self" : "https://api.nasa.gov/neo/rest/v1/feed?start_date=2012-01-08&end_date=2012-01-08&detailed=true&api_key=t0TVs3DtDT2H8Oy2Zy8m2eVrNsAVKAexjcZXUckd"
  },
  "element_count" : 6,
  "near_earth_objects" : {
    "2012-01-08" : [ {
      "links" : {
        "self" : "https://api.nasa.gov/neo/rest/v1/neo/3508160?api_key=t0TVs3DtDT2H8Oy2Zy8m2eVrNsAVKAexjcZXUckd"
      },
      "neo_reference_id" : "3508160",
      "name" : "(2010 DE2)",
      "nasa_jpl_url" : "http://ssd.jpl.nasa.gov/sbdb.cgi?sstr=3508160",
      "absolute_magnitude_h" : 26.8,
      "estimated_diameter" : {
        "kilometers" : {
          "estimated_diameter_min" : 0.0116025908,
          "estimated_diameter_max" : 0.0259441818
        },
        "meters" : {
          "estimated_diameter_min" : 11.6025908209,
          "estimated_diameter_max" : 25.9441817907
        },
        "miles" : {
          "estimated_diameter_min" : 0.0072095135,
          "estimated_diameter_max" : 0.0161209622
        },
        "feet" : {
          "estimated_diameter_min" : 38.066244069,
          "estimated_diameter_max" : 85.1187093863
        }
      },
      "is_potentially_hazardous_asteroid" : false,
      "close_approach_data" : [ {
        "close_approach_date" : "2012-01-08",
        "epoch_date_close_approach" : 1326009600000,
        "relative_velocity" : {
          "kilometers_per_second" : "19.3840805551",
          "kilometers_per_hour" : "69782.689998517",
          "miles_per_hour" : "43360.2497938007"
        },
        "miss_distance" : {
          "astronomical" : "0.4641712459",
          "lunar" : "180.5626220703",
          "kilometers" : "69439032",
          "miles" : "43147416"
        },
        "orbiting_body" : "Earth"
      } ],
      "orbital_data" : {
        "orbit_id" : "8",
        "orbit_determination_date" : "2017-04-06 08:58:15",
        "orbit_uncertainty" : "7",
        "minimum_orbit_intersection" : ".00582113",
        "jupiter_tisserand_invariant" : "4.378",
        "epoch_osculation" : "2458000.5",
        "eccentricity" : ".3582314765791735",
        "semi_major_axis" : "1.546891816642623",
        "inclination" : "4.70987185872043",
        "ascending_node_longitude" : "336.8884033056262",
        "orbital_period" : "702.7297501113701",
        "perihelion_distance" : ".9927464770584959",
        "perihelion_argument" : "187.644975931904",
        "aphelion_distance" : "2.10103715622675",
        "perihelion_time" : "2458070.409629875998",
        "mean_anomaly" : "324.1861373431671",
        "mean_motion" : ".5122879740653451",
        "equinox" : "J2000"
      }
    }, {
      "links" : {
        "self" : "https://api.nasa.gov/neo/rest/v1/neo/3597091?api_key=t0TVs3DtDT2H8Oy2Zy8m2eVrNsAVKAexjcZXUckd"
      },
      "neo_reference_id" : "3597091",
      "name" : "(2012 BN123)",
      "nasa_jpl_url" : "http://ssd.jpl.nasa.gov/sbdb.cgi?sstr=3597091",
      "absolute_magnitude_h" : 23.3,
      "estimated_diameter" : {
        "kilometers" : {
          "estimated_diameter_min" : 0.058150704,
          "estimated_diameter_max" : 0.130028927
        },
        "meters" : {
          "estimated_diameter_min" : 58.1507039646,
          "estimated_diameter_max" : 130.0289270043
        },
        "miles" : {
          "estimated_diameter_min" : 0.0361331611,
          "estimated_diameter_max" : 0.0807962044
        },
        "feet" : {
          "estimated_diameter_min" : 190.7831555951,
          "estimated_diameter_max" : 426.6041048727
        }
      },
      "is_potentially_hazardous_asteroid" : false,
      "close_approach_data" : [ {
        "close_approach_date" : "2012-01-08",
        "epoch_date_close_approach" : 1326009600000,
        "relative_velocity" : {
          "kilometers_per_second" : "8.752682486",
          "kilometers_per_hour" : "31509.6569495625",
          "miles_per_hour" : "19578.8754529101"
        },
        "miss_distance" : {
          "astronomical" : "0.1495162954",
          "lunar" : "58.1618423462",
          "kilometers" : "22367320",
          "miles" : "13898408"
        },
        "orbiting_body" : "Earth"
      } ],
      "orbital_data" : {
        "orbit_id" : "4",
        "orbit_determination_date" : "2017-04-06 08:51:06",
        "orbit_uncertainty" : "9",
        "minimum_orbit_intersection" : ".109759",
        "jupiter_tisserand_invariant" : "3.164",
        "epoch_osculation" : "2455957.5",
        "eccentricity" : ".5745572923287515",
        "semi_major_axis" : "2.565546375811385",
        "inclination" : "8.911502139958785",
        "ascending_node_longitude" : "103.6774912899959",
        "orbital_period" : "1500.956932925984",
        "perihelion_distance" : "1.091492996781354",
        "perihelion_argument" : "350.9894594434267",
        "aphelion_distance" : "4.039599754841416",
        "perihelion_time" : "2455928.313157951545",
        "mean_anomaly" : "7.000376164665038",
        "mean_motion" : ".2398469883464354",
        "equinox" : "J2000"
      }
    }, {
      "links" : {
        "self" : "https://api.nasa.gov/neo/rest/v1/neo/2232691?api_key=t0TVs3DtDT2H8Oy2Zy8m2eVrNsAVKAexjcZXUckd"
      },
      "neo_reference_id" : "2232691",
      "name" : "232691 (2004 AR1)",
      "nasa_jpl_url" : "http://ssd.jpl.nasa.gov/sbdb.cgi?sstr=2232691",
      "absolute_magnitude_h" : 19.8,
      "estimated_diameter" : {
        "kilometers" : {
          "estimated_diameter_min" : 0.2914439045,
          "estimated_diameter_max" : 0.6516883822
        },
        "meters" : {
          "estimated_diameter_min" : 291.4439045349,
          "estimated_diameter_max" : 651.6883821679
        },
        "miles" : {
          "estimated_diameter_min" : 0.1810947904,
          "estimated_diameter_max" : 0.4049402617
        },
        "feet" : {
          "estimated_diameter_min" : 956.1808197541,
          "estimated_diameter_max" : 2138.0853117517
        }
      },
      "is_potentially_hazardous_asteroid" : true,
      "close_approach_data" : [ {
        "close_approach_date" : "2012-01-08",
        "epoch_date_close_approach" : 1326009600000,
        "relative_velocity" : {
          "kilometers_per_second" : "5.8406048674",
          "kilometers_per_hour" : "21026.1775225307",
          "miles_per_hour" : "13064.8490278191"
        },
        "miss_distance" : {
          "astronomical" : "0.4755821523",
          "lunar" : "185.0014648438",
          "kilometers" : "71146080",
          "miles" : "44208124"
        },
        "orbiting_body" : "Earth"
      } ],
      "orbital_data" : {
        "orbit_id" : "95",
        "orbit_determination_date" : "2017-07-19 06:20:34",
        "orbit_uncertainty" : "0",
        "minimum_orbit_intersection" : ".0318572",
        "jupiter_tisserand_invariant" : "4.261",
        "epoch_osculation" : "2458000.5",
        "eccentricity" : ".469939799089113",
        "semi_major_axis" : "1.576277876154736",
        "inclination" : "9.079862948672881",
        "ascending_node_longitude" : "336.579537886826",
        "orbital_period" : "722.8490206561507",
        "perihelion_distance" : ".8355221677259654",
        "perihelion_argument" : "50.21462454799374",
        "aphelion_distance" : "2.317033584583506",
        "perihelion_time" : "2458017.335535911255",
        "mean_anomaly" : "351.6154096431505",
        "mean_motion" : ".4980293113950929",
        "equinox" : "J2000"
      }
    } ]
  }
}